[{"OBJECT_NAME":"STARLINK-1392","OBJECT_ID":"2020-035W","EPOCH":"2026-03-09T09:29:33.950112","MEAN_MOTION":15.29339802,"ECCENTRICITY":0.00011759,"INCLINATION":53.157,"RA_OF_ASC_NODE":66.1264,"ARG_OF_PERICENTER":87.1028,"MEAN_ANOMALY":273.0107,"EPHEMERIS_TYPE":0,"CLASSIFICATION_TYPE":"U","NORAD_CAT_ID":45677,"ELEMENT_SET_NO":999,"REV_AT_EPOCH":31871,"BSTAR":-0.000225775,"MEAN_MOTION_DOT":-6.861e-5,"MEAN_MOTION_DDOT":0},{"OBJECT_NAME":"SIMSAT 1","OBJECT_ID":"2000-026A","EPOCH":"2026-03-09T17:22:54.646176","MEAN_MOTION":15.27666538,"ECCENTRICITY":0.00084816,"INCLINATION":86.3501,"RA_OF_ASC_NODE":180.5413,"ARG_OF_PERICENTER":14.8337,"MEAN_ANOMALY":345.3157,"EPHEMERIS_TYPE":0,"CLASSIFICATION_TYPE":"U","NORAD_CAT_ID":26365,"ELEMENT_SET_NO":999,"REV_AT_EPOCH":42720,"BSTAR":0.00013499313,"MEAN_MOTION_DOT":3.69e-5,"MEAN_MOTION_DDOT":0}]
